{"spkid": "50785717", "covariance": {"elements": [{"label": "e", "sigma": 5.5099230928046e-08, "name": "e", "units": null, "value": ".6747031392504534", "title": "eccentricity"}, {"units": "au", "value": ".5032149131723045", "title": "perihelion distance", "name": "q", "sigma": 8.84222644376322e-08, "label": "q"}, {"label": "tp", "sigma": 1.11749351383511e-05, "name": "tp", "value": "2459380.899227619887", "title": "time of perihelion passage", "units": "TDB"}, {"label": "node", "units": "deg", "value": "23.46094489932227", "title": "longitude of the ascending node", "sigma": 2.5776146251915e-05, "name": "om"}, {"sigma": 2.79946010112276e-05, "name": "w", "title": "argument of perihelion", "value": "241.2101415394511", "units": "deg", "label": "peri"}, {"label": "i", "name": "i", "sigma": 7.04872591183124e-06, "title": "inclination", "value": "6.523933157933573", "units": "deg"}], "data": [["3.035925248862136E-15", "-4.871830810181938E-15", "2.073409316767003E-13", "-2.109102793794564E-13", "3.160832324979496E-13", "-1.651851482268526E-13"], ["-4.871830810181938E-15", "7.818496848278563E-15", "-3.366814642400293E-13", "3.406969998038734E-13", "-5.119021691552507E-13", "2.640928601631254E-13"], ["2.073409316767003E-13", "-3.366814642400293E-13", "1.24879175346355E-10", "-5.397265382309326E-11", "1.383667788725648E-10", "3.462074665414693E-11"], ["-2.109102793794564E-13", "3.406969998038734E-13", "-5.397265382309326E-11", "6.644097156001091E-10", "-6.934458258144906E-10", "-6.413684797443857E-11"], ["3.160832324979496E-13", "-5.119021691552507E-13", "1.383667788725648E-10", "-6.934458258144906E-10", "7.83697685777825E-10", "9.074468569296616E-11"], ["-1.651851482268526E-13", "2.640928601631254E-13", "3.462074665414693E-11", "-6.413684797443857E-11", "9.074468569296616E-11", "4.968453698012118E-11"]], "labels": ["e", "q", "tp", "node", "peri", "i"], "epoch": "2459393.5"}, "elements": [{"label": "e", "title": "eccentricity", "value": ".6748414570225334", "units": null, "name": "e", "sigma": "5.5141E-8"}, {"units": "au", "value": "1.546483597576566", "title": "semi-major axis", "sigma": "9.3896E-9", "name": "a", "label": "a"}, {"name": "q", "sigma": "8.8229E-8", "value": ".5028523533265469", "title": "perihelion distance", "units": "au", "label": "q"}, {"name": "i", "sigma": "7.038E-6", "value": "6.519217616203094", "title": "inclination; angle with respect to x-y ecliptic plane", "units": "deg", "label": "i"}, {"label": "node", "name": "om", "sigma": "2.5817E-5", "value": "23.30292492978043", "title": "longitude of the ascending node", "units": "deg"}, {"title": "argument of perihelion", "value": "241.3924324115798", "units": "deg", "name": "w", "sigma": "2.8015E-5", "label": "peri"}, {"label": "M", "name": "ma", "sigma": "8.1508E-6", "units": "deg", "title": "mean anomaly", "value": "212.1965786581247"}, {"label": "tp", "title": "time of perihelion passage", "value": "2461488.902081470458", "units": "TDB", "name": "tp", "sigma": "1.7957E-5"}, {"label": "period", "units": "d", "title": "sidereal orbital period", "value": "702.4515967679404", "name": "per", "sigma": "6.3975E-6"}, {"value": ".5124908273486756", "title": "mean motion", "units": "deg/d", "name": "n", "sigma": "4.6675E-9", "label": "n"}, {"sigma": "1.5726E-8", "name": "ad", "title": "aphelion distance", "value": "2.590114841826584", "units": "au", "label": "Q"}], "epoch": "2461200.5"}